{"type": "FeatureCollection", "features": [{"type": "Feature", "properties": {"norad_id": 22490, "name": "SCD 1", "group": "resource", "lat": -22.288977712484648, "lon": 150.70969242255345, "alt_km": 743.0250883139042, "timestamp": "2025-12-14T07:33:19.134175+00:00", "meta": {"OBJECT_NAME": "SCD 1", "OBJECT_ID": "1993-009B", "EPOCH": "2025-12-13T12:57:14.164128", "MEAN_MOTION": 14.46000141, "ECCENTRICITY": 0.00418337, "INCLINATION": 24.9698, "RA_OF_ASC_NODE": 273.7492, "ARG_OF_PERICENTER": 333.5211, "MEAN_ANOMALY": 188.1101, "EPHEMERIS_TYPE": 0, "CLASSIFICATION_TYPE": "U", "NORAD_CAT_ID": 22490, "ELEMENT_SET_NO": 999, "REV_AT_EPOCH": 73421, "BSTAR": 0.00014828014, "MEAN_MOTION_DOT": 7.28e-06, "MEAN_MOTION_DDOT": 0}, "tle": {"line1": "1 22490U 93009B   25347.53974727  .00000728  00000+0  14828-3 0  9995", "line2": "2 22490  24.9698 273.7492 0041833 333.5211 188.1101 14.46000141734216"}}, "geometry": {"type": "Point", "coordinates": [150.70969242255345, -22.288977712484648]}}, {"type": "Feature", "properties": {"norad_id": 25397, "name": "TECHSAT 1B (GO-32)", "group": "resource", "lat": -38.434836254181086, "lon": -21.218001520501414, "alt_km": 817.0372379314449, "timestamp": "2025-12-14T07:33:19.134208+00:00", "meta": {"OBJECT_NAME": "TECHSAT 1B (GO-32)", "OBJECT_ID": "1998-043D", "EPOCH": "2025-12-13T13:11:35.630016", "MEAN_MOTION": 14.24377325, "ECCENTRICITY": 0.00020323, "INCLINATION": 98.9921, "RA_OF_ASC_NODE": 330.7805, "ARG_OF_PERICENTER": 56.0464, "MEAN_ANOMALY": 304.0907, "EPHEMERIS_TYPE": 0, "CLASSIFICATION_TYPE": "U", "NORAD_CAT_ID": 25397, "ELEMENT_SET_NO": 999, "REV_AT_EPOCH": 42490, "BSTAR": 8.7860936e-05, "MEAN_MOTION_DOT": 1.57e-06, "MEAN_MOTION_DDOT": 0}, "tle": {"line1": "1 25397U 98043D   25347.54971794  .00000157  00000+0  87861-4 0  9993", "line2": "2 25397  98.9921 330.7805 0002032  56.0464 304.0907 14.24377325424904"}}, "geometry": {"type": "Point", "coordinates": [-21.218001520501414, -38.434836254181086]}}, {"type": "Feature", "properties": {"norad_id": 25504, "name": "SCD 2", "group": "resource", "lat": -24.94040080710403, "lon": 45.59073946273331, "alt_km": 734.8219436947284, "timestamp": "2025-12-14T07:33:19.134224+00:00", "meta": {"OBJECT_NAME": "SCD 2", "OBJECT_ID": "1998-060A", "EPOCH": "2025-12-13T12:13:53.570784", "MEAN_MOTION": 14.45424195, "ECCENTRICITY": 0.00166813, "INCLINATION": 24.9934, "RA_OF_ASC_NODE": 137.1484, "ARG_OF_PERICENTER": 321.8647, "MEAN_ANOMALY": 73.2227, "EPHEMERIS_TYPE": 0, "CLASSIFICATION_TYPE": "U", "NORAD_CAT_ID": 25504, "ELEMENT_SET_NO": 999, "REV_AT_EPOCH": 43343, "BSTAR": 0.00012024336, "MEAN_MOTION_DOT": 6.13e-06, "MEAN_MOTION_DDOT": 0}, "tle": {"line1": "1 25504U 98060A   25347.50964781  .00000613  00000+0  12024-3 0  9991", "line2": "2 25504  24.9934 137.1484 0016681 321.8647  73.2227 14.45424195433439"}}, "geometry": {"type": "Point", "coordinates": [45.59073946273331, -24.94040080710403]}}, {"type": "Feature", "properties": {"norad_id": 25757, "name": "DLR-TUBSAT", "group": "resource", "lat": -21.941978668067815, "lon": -23.604400574403147, "alt_km": 731.8480550596214, "timestamp": "2025-12-14T07:33:19.134238+00:00", "meta": {"OBJECT_NAME": "DLR-TUBSAT", "OBJECT_ID": "1999-029B", "EPOCH": "2025-12-13T13:28:10.799040", "MEAN_MOTION": 14.52358086, "ECCENTRICITY": 0.0013954, "INCLINATION": 98.6564, "RA_OF_ASC_NODE": 332.1003, "ARG_OF_PERICENTER": 190.2558, "MEAN_ANOMALY": 169.8354, "EPHEMERIS_TYPE": 0, "CLASSIFICATION_TYPE": "U", "NORAD_CAT_ID": 25757, "ELEMENT_SET_NO": 999, "REV_AT_EPOCH": 40630, "BSTAR": 6.7662771e-05, "MEAN_MOTION_DOT": 2.27e-06, "MEAN_MOTION_DDOT": 0}, "tle": {"line1": "1 25757U 99029B   25347.56123610  .00000227  00000+0  67663-4 0  9992", "line2": "2 25757  98.6564 332.1003 0013954 190.2558 169.8354 14.52358086406301"}}, "geometry": {"type": "Point", "coordinates": [-23.604400574403147, -21.941978668067815]}}, {"type": "Feature", "properties": {"norad_id": 25994, "name": "TERRA", "group": "resource", "lat": 81.99076824913365, "lon": -45.13911291153513, "alt_km": 680.2456015184489, "timestamp": "2025-12-14T07:33:19.134251+00:00", "meta": {"OBJECT_NAME": "TERRA", "OBJECT_ID": "1999-068A", "EPOCH": "2025-12-13T16:51:39.481056", "MEAN_MOTION": 14.60903286, "ECCENTRICITY": 0.00036, "INCLINATION": 97.9749, "RA_OF_ASC_NODE": 39.3517, "ARG_OF_PERICENTER": 92.5015, "MEAN_ANOMALY": 18.6853, "EPHEMERIS_TYPE": 0, "CLASSIFICATION_TYPE": "U", "NORAD_CAT_ID": 25994, "ELEMENT_SET_NO": 999, "REV_AT_EPOCH": 38252, "BSTAR": 0.00015543692, "MEAN_MOTION_DOT": 7.16e-06, "MEAN_MOTION_DDOT": 0}, "tle": {"line1": "1 25994U 99068A   25347.70254029  .00000716  00000+0  15544-3 0  9996", "line2": "2 25994  97.9749  39.3517 0003600  92.5015  18.6853 14.60903286382525"}}, "geometry": {"type": "Point", "coordinates": [-45.13911291153513, 81.99076824913365]}}, {"type": "Feature", "properties": {"norad_id": 27004, "name": "MAROC-TUBSAT", "group": "resource", "lat": -72.09136017368073, "lon": -170.91382898126378, "alt_km": 993.5677796517775, "timestamp": "2025-12-14T07:33:19.134263+00:00", "meta": {"OBJECT_NAME": "MAROC-TUBSAT", "OBJECT_ID": "2001-056D", "EPOCH": "2025-12-13T11:09:30.382272", "MEAN_MOTION": 13.70252934, "ECCENTRICITY": 0.00191051, "INCLINATION": 99.7912, "RA_OF_ASC_NODE": 155.9226, "ARG_OF_PERICENTER": 258.2182, "MEAN_ANOMALY": 156.6183, "EPHEMERIS_TYPE": 0, "CLASSIFICATION_TYPE": "U", "NORAD_CAT_ID": 27004, "ELEMENT_SET_NO": 999, "REV_AT_EPOCH": 20075, "BSTAR": 4.6062908e-05, "MEAN_MOTION_DOT": -6e-08, "MEAN_MOTION_DDOT": 0}, "tle": {"line1": "1 27004U 01056D   25347.46493498 -.00000006  00000+0  46063-4 0  9992", "line2": "2 27004  99.7912 155.9226 0019105 258.2182 156.6183 13.70252934200756"}}, "geometry": {"type": "Point", "coordinates": [-170.91382898126378, -72.09136017368073]}}, {"type": "Feature", "properties": {"norad_id": 27424, "name": "AQUA", "group": "resource", "lat": -30.164544341920575, "lon": -45.85190585282118, "alt_km": 693.926616769545, "timestamp": "2025-12-14T07:33:19.134275+00:00", "meta": {"OBJECT_NAME": "AQUA", "OBJECT_ID": "2002-022A", "EPOCH": "2025-12-13T16:04:43.741344", "MEAN_MOTION": 14.61812847, "ECCENTRICITY": 0.00011561, "INCLINATION": 98.4036, "RA_OF_ASC_NODE": 308.5641, "ARG_OF_PERICENTER": 114.4382, "MEAN_ANOMALY": 63.5926, "EPHEMERIS_TYPE": 0, "CLASSIFICATION_TYPE": "U", "NORAD_CAT_ID": 27424, "ELEMENT_SET_NO": 999, "REV_AT_EPOCH": 25616, "BSTAR": 0.00034627403, "MEAN_MOTION_DOT": 1.68e-05, "MEAN_MOTION_DDOT": 0}, "tle": {"line1": "1 27424U 02022A   25347.66995071  .00001680  00000+0  34627-3 0  9998", "line2": "2 27424  98.4036 308.5641 0001156 114.4382  63.5926 14.61812847256167"}}, "geometry": {"type": "Point", "coordinates": [-45.85190585282118, -30.164544341920575]}}, {"type": "Feature", "properties": {"norad_id": 28051, "name": "IRS-P6 (RESOURCESAT-1)", "group": "resource", "lat": 46.98439191209509, "lon": 19.73828149530451, "alt_km": 795.5649088787113, "timestamp": "2025-12-14T07:33:19.134286+00:00", "meta": {"OBJECT_NAME": "IRS-P6 (RESOURCESAT-1)", "OBJECT_ID": "2003-046A", "EPOCH": "2025-12-13T16:48:08.779104", "MEAN_MOTION": 14.36075799, "ECCENTRICITY": 0.0064206, "INCLINATION": 98.218, "RA_OF_ASC_NODE": 28.0625, "ARG_OF_PERICENTER": 177.7802, "MEAN_ANOMALY": 294.4049, "EPHEMERIS_TYPE": 0, "CLASSIFICATION_TYPE": "U", "NORAD_CAT_ID": 28051, "ELEMENT_SET_NO": 999, "REV_AT_EPOCH": 15390, "BSTAR": 0.00013837172, "MEAN_MOTION_DOT": 3.71e-06, "MEAN_MOTION_DDOT": 0}, "tle": {"line1": "1 28051U 03046A   25347.70010161  .00000371  00000+0  13837-3 0  9991", "line2": "2 28051  98.2180  28.0625 0064206 177.7802 294.4049 14.36075799153900"}}, "geometry": {"type": "Point", "coordinates": [19.73828149530451, 46.98439191209509]}}, {"type": "Feature", "properties": {"norad_id": 28220, "name": "SHIYAN-1 (SY-1)", "group": "resource", "lat": 79.66637445103633, "lon": 0.39741661799563616, "alt_km": 475.95122276891016, "timestamp": "2025-12-14T07:33:19.134298+00:00", "meta": {"OBJECT_NAME": "SHIYAN-1 (SY-1)", "OBJECT_ID": "2004-012A", "EPOCH": "2025-12-13T15:28:38.372448", "MEAN_MOTION": 15.28180516, "ECCENTRICITY": 0.00055998, "INCLINATION": 97.8939, "RA_OF_ASC_NODE": 49.2364, "ARG_OF_PERICENTER": 321.933, "MEAN_ANOMALY": 38.1512, "EPHEMERIS_TYPE": 0, "CLASSIFICATION_TYPE": "U", "NORAD_CAT_ID": 28220, "ELEMENT_SET_NO": 999, "REV_AT_EPOCH": 18270, "BSTAR": 0.0005430268, "MEAN_MOTION_DOT": 0.00014854, "MEAN_MOTION_DDOT": 0}, "tle": {"line1": "1 28220U 04012A   25347.64488857  .00014854  00000+0  54303-3 0  9991", "line2": "2 28220  97.8939  49.2364 0005599 321.9330  38.1512 15.28180516182703"}}, "geometry": {"type": "Point", "coordinates": [0.39741661799563616, 79.66637445103633]}}, {"type": "Feature", "properties": {"norad_id": 28376, "name": "AURA", "group": "resource", "lat": 79.75228105282905, "lon": 172.5727418797118, "alt_km": 681.805215549859, "timestamp": "2025-12-14T07:33:19.134309+00:00", "meta": {"OBJECT_NAME": "AURA", "OBJECT_ID": "2004-026A", "EPOCH": "2025-12-13T14:40:49.012032", "MEAN_MOTION": 14.60950176, "ECCENTRICITY": 0.00012802, "INCLINATION": 98.3182, "RA_OF_ASC_NODE": 297.8424, "ARG_OF_PERICENTER": 94.4506, "MEAN_ANOMALY": 265.6841, "EPHEMERIS_TYPE": 0, "CLASSIFICATION_TYPE": "U", "NORAD_CAT_ID": 28376, "ELEMENT_SET_NO": 999, "REV_AT_EPOCH": 13911, "BSTAR": 0.00034437907, "MEAN_MOTION_DOT": 1.639e-05, "MEAN_MOTION_DDOT": 0}, "tle": {"line1": "1 28376U 04026A   25347.61167838  .00001639  00000+0  34438-3 0  9992", "line2": "2 28376  98.3182 297.8424 0001280  94.4506 265.6841 14.60950176139110"}}, "geometry": {"type": "Point", "coordinates": [172.5727418797118, 79.75228105282905]}}]}